*******************************************************************************
 Revised: April 12, 2021        Mars Barycenter                               4
 
 Dynamical point:
 ---------------
 The common center of mass about which the Martian system (planet and
 satellites Phobos and Deimos) revolve.
*******************************************************************************


*******************************************************************************
Ephemeris / WWW_USER Mon Jan  5 13:46:45 2026 Pasadena, USA      / Horizons
*******************************************************************************
Target body name: Mars Barycenter (4)             {source: DE441}
Center body name: Solar System Barycenter (0)     {source: DE441}
Center-site name: BODY CENTER
*******************************************************************************
Start time      : A.D. 2026-Jan-05 00:00:00.0000 TDB
Stop  time      : A.D. 2026-Apr-03 00:00:00.0000 TDB
Step-size       : 1440 minutes
*******************************************************************************
Center geodetic : 0.0, 0.0, 0.0                   {E-lon(deg),Lat(deg),Alt(km)}
Center cylindric: 0.0, 0.0, 0.0                   {E-lon(deg),Dxy(km),Dz(km)}
Center radii    : (undefined)
Output units    : KM-S
Calendar mode   : Mixed Julian/Gregorian
Output type     : GEOMETRIC cartesian states
Output format   : 3 (position, velocity, LT, range, range-rate)
Reference frame : Ecliptic of J2000.0
*******************************************************************************
JDTDB
   X     Y     Z
   VX    VY    VZ
   LT    RG    RR
*******************************************************************************
$$SOE
2461129.500000000 = A.D. 2026-Mar-30 00:00:00.0000 TDB 
 X = 1.917629156111126E+08 Y =-7.665058939867721E+07 Z =-6.282411167699147E+06
 VX= 9.834151706865670E+00 VY= 2.461166296434508E+01 VZ= 2.746429520811002E-01
 LT= 6.891776266905404E+02 RG= 2.066102547041635E+08 RR=-1.160778965595634E-02
2461130.500000000 = A.D. 2026-Mar-31 00:00:00.0000 TDB 
 X = 1.926017860693278E+08 Y =-7.451992466907367E+07 Z =-6.258328824645855E+06
 VX= 9.583970013204050E+00 VY= 2.470881635041049E+01 VZ= 2.828132931110279E-01
 LT= 6.891779213338584E+02 RG= 2.066103430360080E+08 RR= 1.365212630546774E-02
2461131.500000000 = A.D. 2026-Apr-01 00:00:00.0000 TDB 
 X = 1.934189957523721E+08 Y =-7.238098621406575E+07 Z =-6.233541980447054E+06
 VX= 9.332750929443854E+00 VY= 2.480318223022615E+01 VZ= 2.909506553087304E-01
 LT= 6.891854953636812E+02 RG= 2.066126136730256E+08 RR= 3.890792552338945E-02
2461132.500000000 = A.D. 2026-Apr-02 00:00:00.0000 TDB 
 X = 1.942144566020175E+08 Y =-7.023401542449574E+07 Z =-6.208053534561809E+06
 VX= 9.080530882414335E+00 VY= 2.489474796273938E+01 VZ= 2.990538804988372E-01
 LT= 6.892003470677407E+02 RG= 2.066170661018911E+08 RR= 6.415595929319066E-02
2461133.500000000 = A.D. 2026-Apr-03 00:00:00.0000 TDB 
 X = 1.949880837153193E+08 Y =-6.807925475809059E+07 Z =-6.181866486181580E+06
 VX= 8.827346482281760E+00 VY= 2.498350149315970E+01 VZ= 3.071218182966451E-01
 LT= 6.892224736825580E+02 RG= 2.066236994941344E+08 RR= 8.939258148434250E-02
